ONEWEB-0698             
1 61604U 24188L   26161.10703307 -.00000646  00000+0 -18580-2 0  9998
2 61604  87.8889  22.4912 0000655  98.4526 261.6676 13.11416864 83546
ONEWEB-0699             
1 61605U 24188M   26161.19063228  .00000633  00000+0  17770-2 0  9993
2 61605  87.8835  37.6594 0001413 101.2910 258.8377 13.10371568 82393
ONEWEB-0700             
1 61606U 24188N   26161.19229015  .00000504  00000+0  14075-2 0  9994
2 61606  87.8855  37.5670 0001794 104.2290 255.9037 13.10371523 82387
ONEWEB-0701             
1 61607U 24188P   26161.13251632 -.00000279  00000+0 -83619-3 0  9991
2 61607  87.8841  37.6704 0001370 108.3766 251.7511 13.10369617 82387
ONEWEB-0702             
1 61608U 24188Q   26161.15283494  .00000328  00000+0  89063-3 0  9997
2 61608  87.8909  22.3859 0001764 118.2636 241.8671 13.11416697 83568
ONEWEB-0704             
1 61609U 24188R   26161.12091130  .00000325  00000+0  89480-3 0  9999
2 61609  87.8848  37.6615 0001950 115.6808 244.4521 13.10370109 82365
ONEWEB-0705             
1 61610U 24188S   26161.12589642  .00000761  00000+0  21425-2 0  9999
2 61610  87.8845  37.6662 0002544 103.1946 256.9466 13.10370430 74534
ONEWEB-0706             
1 61611U 24188T   26161.18731370  .00000663  00000+0  18616-2 0  9992
2 61611  87.8842  37.6595 0001914 100.8449 259.2894 13.10372461 82467
ONEWEB-0707             
1 61612U 24188U   26161.19394958  .00000497  00000+0  13869-2 0  9991
2 61612  87.8845  37.6517 0001840 100.6576 259.4759 13.10370783 82403
ONEWEB-0708             
1 61613U 24188V   26161.13583403 -.00000371  00000+0 -10992-2 0  9998
2 61613  87.8837  37.6823 0002312  86.5028 273.6364 13.10370534 82374
