[{"OBJECT_NAME":"ONEWEB-0698","OBJECT_ID":"2024-188L","EPOCH":"2026-06-10T02:34:07.657248","MEAN_MOTION":13.11416864,"ECCENTRICITY":6.55e-05,"INCLINATION":87.8889,"RA_OF_ASC_NODE":22.4912,"ARG_OF_PERICENTER":98.4526,"MEAN_ANOMALY":261.6676,"EPHEMERIS_TYPE":0,"CLASSIFICATION_TYPE":"U","NORAD_CAT_ID":61604,"ELEMENT_SET_NO":999,"REV_AT_EPOCH":8354,"BSTAR":-0.001858,"MEAN_MOTION_DOT":-6.46e-06,"MEAN_MOTION_DDOT":0.0},{"OBJECT_NAME":"ONEWEB-0699","OBJECT_ID":"2024-188M","EPOCH":"2026-06-10T04:34:30.628992","MEAN_MOTION":13.10371568,"ECCENTRICITY":0.0001413,"INCLINATION":87.8835,"RA_OF_ASC_NODE":37.6594,"ARG_OF_PERICENTER":101.291,"MEAN_ANOMALY":258.8377,"EPHEMERIS_TYPE":0,"CLASSIFICATION_TYPE":"U","NORAD_CAT_ID":61605,"ELEMENT_SET_NO":999,"REV_AT_EPOCH":8239,"BSTAR":0.001777,"MEAN_MOTION_DOT":6.33e-06,"MEAN_MOTION_DDOT":0.0},{"OBJECT_NAME":"ONEWEB-0700","OBJECT_ID":"2024-188N","EPOCH":"2026-06-10T04:36:53.868960","MEAN_MOTION":13.10371523,"ECCENTRICITY":0.0001794,"INCLINATION":87.8855,"RA_OF_ASC_NODE":37.567,"ARG_OF_PERICENTER":104.229,"MEAN_ANOMALY":255.9037,"EPHEMERIS_TYPE":0,"CLASSIFICATION_TYPE":"U","NORAD_CAT_ID":61606,"ELEMENT_SET_NO":999,"REV_AT_EPOCH":8238,"BSTAR":0.0014075,"MEAN_MOTION_DOT":5.04e-06,"MEAN_MOTION_DDOT":0.0},{"OBJECT_NAME":"ONEWEB-0701","OBJECT_ID":"2024-188P","EPOCH":"2026-06-10T03:10:49.410048","MEAN_MOTION":13.10369617,"ECCENTRICITY":0.000137,"INCLINATION":87.8841,"RA_OF_ASC_NODE":37.6704,"ARG_OF_PERICENTER":108.3766,"MEAN_ANOMALY":251.7511,"EPHEMERIS_TYPE":0,"CLASSIFICATION_TYPE":"U","NORAD_CAT_ID":61607,"ELEMENT_SET_NO":999,"REV_AT_EPOCH":8238,"BSTAR":-0.00083619,"MEAN_MOTION_DOT":-2.79e-06,"MEAN_MOTION_DDOT":0.0},{"OBJECT_NAME":"ONEWEB-0702","OBJECT_ID":"2024-188Q","EPOCH":"2026-06-10T03:40:04.938816","MEAN_MOTION":13.11416697,"ECCENTRICITY":0.0001764,"INCLINATION":87.8909,"RA_OF_ASC_NODE":22.3859,"ARG_OF_PERICENTER":118.2636,"MEAN_ANOMALY":241.8671,"EPHEMERIS_TYPE":0,"CLASSIFICATION_TYPE":"U","NORAD_CAT_ID":61608,"ELEMENT_SET_NO":999,"REV_AT_EPOCH":8356,"BSTAR":0.00089063,"MEAN_MOTION_DOT":3.28e-06,"MEAN_MOTION_DDOT":0.0},{"OBJECT_NAME":"ONEWEB-0704","OBJECT_ID":"2024-188R","EPOCH":"2026-06-10T02:54:06.736320","MEAN_MOTION":13.10370109,"ECCENTRICITY":0.000195,"INCLINATION":87.8848,"RA_OF_ASC_NODE":37.6615,"ARG_OF_PERICENTER":115.6808,"MEAN_ANOMALY":244.4521,"EPHEMERIS_TYPE":0,"CLASSIFICATION_TYPE":"U","NORAD_CAT_ID":61609,"ELEMENT_SET_NO":999,"REV_AT_EPOCH":8236,"BSTAR":0.0008948000000000001,"MEAN_MOTION_DOT":3.25e-06,"MEAN_MOTION_DDOT":0.0},{"OBJECT_NAME":"ONEWEB-0705","OBJECT_ID":"2024-188S","EPOCH":"2026-06-10T03:01:17.450688","MEAN_MOTION":13.1037043,"ECCENTRICITY":0.0002544,"INCLINATION":87.8845,"RA_OF_ASC_NODE":37.6662,"ARG_OF_PERICENTER":103.1946,"MEAN_ANOMALY":256.9466,"EPHEMERIS_TYPE":0,"CLASSIFICATION_TYPE":"U","NORAD_CAT_ID":61610,"ELEMENT_SET_NO":999,"REV_AT_EPOCH":7453,"BSTAR":0.0021425,"MEAN_MOTION_DOT":7.61e-06,"MEAN_MOTION_DDOT":0.0},{"OBJECT_NAME":"ONEWEB-0706","OBJECT_ID":"2024-188T","EPOCH":"2026-06-10T04:29:43.903680","MEAN_MOTION":13.10372461,"ECCENTRICITY":0.0001914,"INCLINATION":87.8842,"RA_OF_ASC_NODE":37.6595,"ARG_OF_PERICENTER":100.8449,"MEAN_ANOMALY":259.2894,"EPHEMERIS_TYPE":0,"CLASSIFICATION_TYPE":"U","NORAD_CAT_ID":61611,"ELEMENT_SET_NO":999,"REV_AT_EPOCH":8246,"BSTAR":0.0018616,"MEAN_MOTION_DOT":6.63e-06,"MEAN_MOTION_DDOT":0.0},{"OBJECT_NAME":"ONEWEB-0707","OBJECT_ID":"2024-188U","EPOCH":"2026-06-10T04:39:17.243712","MEAN_MOTION":13.10370783,"ECCENTRICITY":0.000184,"INCLINATION":87.8845,"RA_OF_ASC_NODE":37.6517,"ARG_OF_PERICENTER":100.6576,"MEAN_ANOMALY":259.4759,"EPHEMERIS_TYPE":0,"CLASSIFICATION_TYPE":"U","NORAD_CAT_ID":61612,"ELEMENT_SET_NO":999,"REV_AT_EPOCH":8240,"BSTAR":0.0013869000000000002,"MEAN_MOTION_DOT":4.97e-06,"MEAN_MOTION_DDOT":0.0},{"OBJECT_NAME":"ONEWEB-0708","OBJECT_ID":"2024-188V","EPOCH":"2026-06-10T03:15:36.060192","MEAN_MOTION":13.10370534,"ECCENTRICITY":0.0002312,"INCLINATION":87.8837,"RA_OF_ASC_NODE":37.6823,"ARG_OF_PERICENTER":86.5028,"MEAN_ANOMALY":273.6364,"EPHEMERIS_TYPE":0,"CLASSIFICATION_TYPE":"U","NORAD_CAT_ID":61613,"ELEMENT_SET_NO":999,"REV_AT_EPOCH":8237,"BSTAR":-0.0010992,"MEAN_MOTION_DOT":-3.71e-06,"MEAN_MOTION_DDOT":0.0}]